ONEWEB-0012             
1 44057U 19010A   26187.63238457  .00000042  00000+0  76100-4 0  9996
2 44057  87.9079 224.9229 0001688  89.0557 271.0768 13.16596310354120
ONEWEB-0010             
1 44058U 19010B   26187.65772924 -.00000088  00000+0 -26417-3 0  9998
2 44058  87.9083 224.9138 0002203 103.3338 256.8038 13.16593594354173
ONEWEB-0008             
1 44059U 19010C   26187.53106404 -.00000038  00000+0 -13329-3 0  9993
2 44059  87.9079 224.9345 0002256  89.8298 270.3091 13.16593135354272
ONEWEB-0007             
1 44060U 19010D   26187.65760683  .00000028  00000+0  39582-4 0  9990
2 44060  87.8993 255.3419 0001819 104.8614 255.2718 13.15548298353931
ONEWEB-0006             
1 44061U 19010E   26187.66157003 -.00000037  00000+0 -13350-3 0  9994
2 44061  87.9003 255.3074 0002213  99.5376 260.6004 13.15550571353986
ONEWEB-0011             
1 44062U 19010F   26187.70592889  .00000110  00000+0  25808-3 0  9996
2 44062  87.9002 255.3086 0002268  99.9721 260.1666 13.15549029353982
ONEWEB-0013             
1 45131U 20008A   26187.65479285 -.00000436  00000+0 -13017-2 0  9992
2 45131  87.8507  48.8959 0001342  49.4228 310.7015 13.09462698308616
ONEWEB-0017             
1 45132U 20008B   26187.62366168  .00000347  00000+0  95663-3 0  9992
2 45132  87.8819  32.3955 0001948  91.3364 268.7986 13.10376650310498
ONEWEB-0020             
1 45133U 20008C   26187.59307064 -.00000676  00000+0 -19728-2 0  9993
2 45133  87.8820  32.4007 0001838  85.4384 274.6953 13.10370876310881
ONEWEB-0021             
1 45134U 20008D   26187.60833794 -.00000390  00000+0 -11528-2 0  9993
2 45134  87.8820  32.4128 0001723  87.2999 272.8325 13.10374086311196
ONEWEB-0023             
1 45136U 20008F   26187.61938037  .00000169  00000+0  44876-3 0  9997
2 45136  87.8826  32.3937 0001884  80.0391 280.0949 13.10379950310621
ONEWEB-0024             
1 45137U 20008G   26187.59150193 -.00000585  00000+0 -17131-2 0  9991
2 45137  87.8827  32.3925 0001825  88.1893 271.9443 13.10370424310783
ONEWEB-0025             
1 45138U 20008H   26187.59123147 -.00000557  00000+0 -16331-2 0  9991
2 45138  87.8827  32.3826 0002279  83.1931 276.9456 13.10370301311117
ONEWEB-0026             
1 45139U 20008J   26187.76683441  .00000036  00000+0  66932-4 0  9993
2 45139  87.8879  17.1691 0001977  91.8433 268.2921 13.11414888313677
ONEWEB-0028             
1 45140U 20008K   26187.58966553  .00000528  00000+0  14540-2 0  9995
2 45140  87.8875  17.2120 0001473  72.7576 287.3713 13.11416943311167
ONEWEB-0032             
1 45141U 20008L   26187.54913028  .00000493  00000+0  13771-2 0  9997
2 45141  87.8821  32.4122 0001671  70.4770 289.6537 13.10375091310830
ONEWEB-0033             
1 45142U 20008M   26187.59985286 -.00000638  00000+0 -18651-2 0  9993
2 45142  87.8817  32.4086 0002110  99.1416 260.9950 13.10372283310751
ONEWEB-0035             
1 45143U 20008N   26187.62039493 -.00001933  00000+0 -55769-2 0  9998
2 45143  87.8821  32.3976 0001924  87.6764 272.4583 13.10356219310485
ONEWEB-0036             
1 45144U 20008P   26187.59804177 -.00000681  00000+0 -19863-2 0  9998
2 45144  87.8832  32.4182 0001772  79.7302 280.4025 13.10368419310901
ONEWEB-0038             
1 45145U 20008Q   26187.54825016 -.00000435  00000+0 -12626-2 0  9996
2 45145  87.8894  17.2242 0001325 150.9335 209.1867 13.11415666312867
ONEWEB-0039             
1 45146U 20008R   26187.60325690 -.00000314  00000+0 -93506-3 0  9990
2 45146  87.8813  32.3986 0001370  71.0425 289.0851 13.10372071310707
ONEWEB-0040             
1 45147U 20008S   26187.59645250 -.00000631  00000+0 -18441-2 0  9992
2 45147  87.8816  32.4106 0001974  78.0129 282.1220 13.10371240310402
ONEWEB-0043             
1 45149U 20008U   26187.59830209 -.00000715  00000+0 -20857-2 0  9991
2 45149  87.8824  32.3991 0001477  72.0810 288.0478 13.10367309310729
ONEWEB-0044             
1 45150U 20008V   26187.55070228  .00000530  00000+0  14815-2 0  9996
2 45150  87.8828  32.4097 0001800  80.4628 279.6703 13.10376749311011
ONEWEB-0045             
1 45151U 20008W   26187.77191837 -.00000255  00000+0 -75421-3 0  9998
2 45151  87.8889  17.1612 0001701  88.3058 271.8265 13.11415023312979
ONEWEB-0047             
1 45152U 20008X   26187.62009426  .00000140  00000+0  36557-3 0  9993
2 45152  87.8828  32.3952 0001809  92.6078 267.5256 13.10374972310749
ONEWEB-0048             
1 45153U 20008Y   26187.61513199 -.00000295  00000+0 -88019-3 0  9993
2 45153  87.8821  32.4157 0001827  88.4380 271.6957 13.10376334310355
ONEWEB-0049             
1 45154U 20008Z   26187.61838867  .00000041  00000+0  81754-4 0  9993
2 45154  87.8818  32.4042 0002079  75.5485 284.5873 13.10374474310575
ONEWEB-0051             
1 45155U 20008AA  26187.77023083 -.00000129  00000+0 -39869-3 0  9995
2 45155  87.8880  17.1676 0001859  89.6257 270.5084 13.11415312313655
ONEWEB-0052             
1 45156U 20008AB  26187.63907664  .00000682  00000+0  19181-2 0  9993
2 45156  87.8821  32.3873 0001952  75.7677 284.3667 13.10373520310486
ONEWEB-0053             
1 45157U 20008AC  26187.59476110 -.00000639  00000+0 -18676-2 0  9998
2 45157  87.8817  32.4166 0001665  70.9347 289.1960 13.10370959310459
